[
  {
    "OBJECT_NAME": "METEOSAT-10 (MSG-3)",
    "OBJECT_ID": "2012-035B",
    "EPOCH": "2025-06-14T09:58:38.712576",
    "MEAN_MOTION": 1.0027512,
    "ECCENTRICITY": 9.12e-05,
    "INCLINATION": 3.8005,
    "RA_OF_ASC_NODE": 62.0706,
    "ARG_OF_PERICENTER": 39.4585,
    "MEAN_ANOMALY": 311.2296,
    "EPHEMERIS_TYPE": 0,
    "CLASSIFICATION_TYPE": "U",
    "NORAD_CAT_ID": 38552,
    "ELEMENT_SET_NO": 999,
    "REV_AT_EPOCH": 4716,
    "BSTAR": 0,
    "MEAN_MOTION_DOT": 7e-08,
    "MEAN_MOTION_DDOT": 0
  },
  {
    "OBJECT_NAME": "METOP-B",
    "OBJECT_ID": "2012-049A",
    "EPOCH": "2025-06-14T19:36:42.094368",
    "MEAN_MOTION": 14.21464334,
    "ECCENTRICITY": 0.0001064,
    "INCLINATION": 98.5765,
    "RA_OF_ASC_NODE": 219.8873,
    "ARG_OF_PERICENTER": 54.0297,
    "MEAN_ANOMALY": 306.0979,
    "EPHEMERIS_TYPE": 0,
    "CLASSIFICATION_TYPE": "U",
    "NORAD_CAT_ID": 38771,
    "ELEMENT_SET_NO": 999,
    "REV_AT_EPOCH": 66106,
    "BSTAR": 7.2272e-05,
    "MEAN_MOTION_DOT": 1.15e-06,
    "MEAN_MOTION_DDOT": 0
  },
  {
    "OBJECT_NAME": "INSAT-3D",
    "OBJECT_ID": "2013-038B",
    "EPOCH": "2025-06-14T18:09:13.957056",
    "MEAN_MOTION": 1.00272369,
    "ECCENTRICITY": 0.0001516,
    "INCLINATION": 0.9753,
    "RA_OF_ASC_NODE": 87.575,
    "ARG_OF_PERICENTER": 352.5618,
    "MEAN_ANOMALY": 225.0188,
    "EPHEMERIS_TYPE": 0,
    "CLASSIFICATION_TYPE": "U",
    "NORAD_CAT_ID": 39216,
    "ELEMENT_SET_NO": 999,
    "REV_AT_EPOCH": 4361,
    "BSTAR": 0,
    "MEAN_MOTION_DOT": -3.26e-06,
    "MEAN_MOTION_DDOT": 0
  },
  {
    "OBJECT_NAME": "FENGYUN 3C",
    "OBJECT_ID": "2013-052A",
    "EPOCH": "2025-06-14T21:04:51.909312",
    "MEAN_MOTION": 14.15628829,
    "ECCENTRICITY": 0.0014826,
    "INCLINATION": 98.4542,
    "RA_OF_ASC_NODE": 152.5927,
    "ARG_OF_PERICENTER": 5.9848,
    "MEAN_ANOMALY": 354.1502,
    "EPHEMERIS_TYPE": 0,
    "CLASSIFICATION_TYPE": "U",
    "NORAD_CAT_ID": 39260,
    "ELEMENT_SET_NO": 999,
    "REV_AT_EPOCH": 60666,
    "BSTAR": 6.1236e-05,
    "MEAN_MOTION_DOT": 7.9e-07,
    "MEAN_MOTION_DDOT": 0
  },
  {
    "OBJECT_NAME": "METEOR-M 2",
    "OBJECT_ID": "2014-037A",
    "EPOCH": "2025-06-14T21:36:23.155200",
    "MEAN_MOTION": 14.21300503,
    "ECCENTRICITY": 0.0006414,
    "INCLINATION": 98.4677,
    "RA_OF_ASC_NODE": 150.6307,
    "ARG_OF_PERICENTER": 34.3827,
    "MEAN_ANOMALY": 325.7765,
    "EPHEMERIS_TYPE": 0,
    "CLASSIFICATION_TYPE": "U",
    "NORAD_CAT_ID": 40069,
    "ELEMENT_SET_NO": 999,
    "REV_AT_EPOCH": 56714,
    "BSTAR": 6.6933e-05,
    "MEAN_MOTION_DOT": 1.04e-06,
    "MEAN_MOTION_DDOT": 0
  },
  {
    "OBJECT_NAME": "HIMAWARI-8",
    "OBJECT_ID": "2014-060A",
    "EPOCH": "2025-06-14T13:57:35.305632",
    "MEAN_MOTION": 1.00270635,
    "ECCENTRICITY": 0.0001031,
    "INCLINATION": 0.0146,
    "RA_OF_ASC_NODE": 20.0544,
    "ARG_OF_PERICENTER": 106.7739,
    "MEAN_ANOMALY": 126.346,
    "EPHEMERIS_TYPE": 0,
    "CLASSIFICATION_TYPE": "U",
    "NORAD_CAT_ID": 40267,
    "ELEMENT_SET_NO": 999,
    "REV_AT_EPOCH": 3906,
    "BSTAR": 0,
    "MEAN_MOTION_DOT": -2.62e-06,
    "MEAN_MOTION_DDOT": 0
  },
  {
    "OBJECT_NAME": "FENGYUN 2G",
    "OBJECT_ID": "2014-090A",
    "EPOCH": "2025-06-14T21:24:41.027328",
    "MEAN_MOTION": 1.00274595,
    "ECCENTRICITY": 0.0003619,
    "INCLINATION": 4.7078,
    "RA_OF_ASC_NODE": 77.2983,
    "ARG_OF_PERICENTER": 141.0935,
    "MEAN_ANOMALY": 105.8621,
    "EPHEMERIS_TYPE": 0,
    "CLASSIFICATION_TYPE": "U",
    "NORAD_CAT_ID": 40367,
    "ELEMENT_SET_NO": 999,
    "REV_AT_EPOCH": 3835,
    "BSTAR": 0,
    "MEAN_MOTION_DOT": -2.91e-06,
    "MEAN_MOTION_DDOT": 0
  },
  {
    "OBJECT_NAME": "METEOSAT-11 (MSG-4)",
    "OBJECT_ID": "2015-034A",
    "EPOCH": "2025-06-14T13:54:06.717024",
    "MEAN_MOTION": 1.0027969,
    "ECCENTRICITY": 8.95e-05,
    "INCLINATION": 2.283,
    "RA_OF_ASC_NODE": 72.3755,
    "ARG_OF_PERICENTER": 292.6938,
    "MEAN_ANOMALY": 116.1498,
    "EPHEMERIS_TYPE": 0,
    "CLASSIFICATION_TYPE": "U",
    "NORAD_CAT_ID": 40732,
    "ELEMENT_SET_NO": 999,
    "REV_AT_EPOCH": 353,
    "BSTAR": 0,
    "MEAN_MOTION_DOT": 7.8e-07,
    "MEAN_MOTION_DDOT": 0
  },
  {
    "OBJECT_NAME": "ELEKTRO-L 2",
    "OBJECT_ID": "2015-074A",
    "EPOCH": "2025-06-14T03:24:38.886336",
    "MEAN_MOTION": 1.00272843,
    "ECCENTRICITY": 7.95e-05,
    "INCLINATION": 5.7641,
    "RA_OF_ASC_NODE": 75.0731,
    "ARG_OF_PERICENTER": 219.7226,
    "MEAN_ANOMALY": 4.5673,
    "EPHEMERIS_TYPE": 0,
    "CLASSIFICATION_TYPE": "U",
    "NORAD_CAT_ID": 41105,
    "ELEMENT_SET_NO": 999,
    "REV_AT_EPOCH": 3481,
    "BSTAR": 0,
    "MEAN_MOTION_DOT": -1.05e-06,
    "MEAN_MOTION_DDOT": 0
  },
  {
    "OBJECT_NAME": "INSAT-3DR",
    "OBJECT_ID": "2016-054A",
    "EPOCH": "2025-06-14T21:07:19.711200",
    "MEAN_MOTION": 1.00271228,
    "ECCENTRICITY": 0.0009884,
    "INCLINATION": 0.0948,
    "RA_OF_ASC_NODE": 93.1239,
    "ARG_OF_PERICENTER": 175.6979,
    "MEAN_ANOMALY": 25.4217,
    "EPHEMERIS_TYPE": 0,
    "CLASSIFICATION_TYPE": "U",
    "NORAD_CAT_ID": 41752,
    "ELEMENT_SET_NO": 999,
    "REV_AT_EPOCH": 3211,
    "BSTAR": 0,
    "MEAN_MOTION_DOT": -6.4e-07,
    "MEAN_MOTION_DDOT": 0
  },
  {
    "OBJECT_NAME": "HIMAWARI-9",
    "OBJECT_ID": "2016-064A",
    "EPOCH": "2025-06-14T13:57:35.308224",
    "MEAN_MOTION": 1.00270737,
    "ECCENTRICITY": 0.000147,
    "INCLINATION": 0.0496,
    "RA_OF_ASC_NODE": 109.449,
    "ARG_OF_PERICENTER": 0.782,
    "MEAN_ANOMALY": 143.0597,
    "EPHEMERIS_TYPE": 0,
    "CLASSIFICATION_TYPE": "U",
    "NORAD_CAT_ID": 41836,
    "ELEMENT_SET_NO": 999,
    "REV_AT_EPOCH": 3161,
    "BSTAR": 0,
    "MEAN_MOTION_DOT": -2.61e-06,
    "MEAN_MOTION_DDOT": 0
  },
  {
    "OBJECT_NAME": "GOES 16",
    "OBJECT_ID": "2016-071A",
    "EPOCH": "2025-06-14T13:21:27.527904",
    "MEAN_MOTION": 1.00273812,
    "ECCENTRICITY": 0.000101,
    "INCLINATION": 0.0491,
    "RA_OF_ASC_NODE": 247.7085,
    "ARG_OF_PERICENTER": 229.0125,
    "MEAN_ANOMALY": 242.008,
    "EPHEMERIS_TYPE": 0,
    "CLASSIFICATION_TYPE": "U",
    "NORAD_CAT_ID": 41866,
    "ELEMENT_SET_NO": 999,
    "REV_AT_EPOCH": 3141,
    "BSTAR": 0,
    "MEAN_MOTION_DOT": -7.7e-07,
    "MEAN_MOTION_DDOT": 0
  },
  {
    "OBJECT_NAME": "FENGYUN 4A",
    "OBJECT_ID": "2016-077A",
    "EPOCH": "2025-06-14T15:18:14.142816",
    "MEAN_MOTION": 1.00272888,
    "ECCENTRICITY": 0.0006946,
    "INCLINATION": 1.3846,
    "RA_OF_ASC_NODE": 84.3016,
    "ARG_OF_PERICENTER": 167.5151,
    "MEAN_ANOMALY": 4.7005,
    "EPHEMERIS_TYPE": 0,
    "CLASSIFICATION_TYPE": "U",
    "NORAD_CAT_ID": 41882,
    "ELEMENT_SET_NO": 999,
    "REV_AT_EPOCH": 3124,
    "BSTAR": 0,
    "MEAN_MOTION_DOT": -3.44e-06,
    "MEAN_MOTION_DDOT": 0
  },
  {
    "OBJECT_NAME": "CYGFM05",
    "OBJECT_ID": "2016-078A",
    "EPOCH": "2025-06-14T07:38:14.998560",
    "MEAN_MOTION": 15.40752074,
    "ECCENTRICITY": 0.0010841,
    "INCLINATION": 34.9598,
    "RA_OF_ASC_NODE": 144.8992,
    "ARG_OF_PERICENTER": 285.0889,
    "MEAN_ANOMALY": 74.8631,
    "EPHEMERIS_TYPE": 0,
    "CLASSIFICATION_TYPE": "U",
    "NORAD_CAT_ID": 41884,
    "ELEMENT_SET_NO": 999,
    "REV_AT_EPOCH": 47171,
    "BSTAR": 0.00033021,
    "MEAN_MOTION_DOT": 0.00013903,
    "MEAN_MOTION_DDOT": 0
  }
]