METEOSAT-10 (MSG-3)     
1 38552U 12035B   25165.41572584  .00000007  00000+0  00000+0 0  9994
2 38552   3.8005  62.0706 0000912  39.4585 311.2296  1.00275120 47168
METOP-B                 
1 38771U 12049A   25165.81715387  .00000115  00000+0  72272-4 0  9991
2 38771  98.5765 219.8873 0001064  54.0297 306.0979 14.21464334661069
INSAT-3D                
1 39216U 13038B   25165.75641154 -.00000326  00000+0  00000+0 0  9998
2 39216   0.9753  87.5750 0001516 352.5618 225.0188  1.00272369 43612
FENGYUN 3C              
1 39260U 13052A   25165.87837858  .00000079  00000+0  61236-4 0  9991
2 39260  98.4542 152.5927 0014826   5.9848 354.1502 14.15628829606660
METEOR-M 2              
1 40069U 14037A   25165.90026800  .00000104  00000+0  66933-4 0  9993
2 40069  98.4677 150.6307 0006414  34.3827 325.7765 14.21300503567143
HIMAWARI-8              
1 40267U 14060A   25165.58165863 -.00000262  00000+0  00000+0 0  9990
2 40267   0.0146  20.0544 0001031 106.7739 126.3460  1.00270635 39069
FENGYUN 2G              
1 40367U 14090A   25165.89214152 -.00000291  00000+0  00000+0 0  9996
2 40367   4.7078  77.2983 0003619 141.0935 105.8621  1.00274595 38351
METEOSAT-11 (MSG-4)     
1 40732U 15034A   25165.57924441  .00000078  00000+0  00000+0 0  9997
2 40732   2.2830  72.3755 0000895 292.6938 116.1498  1.00279690  3538
ELEKTRO-L 2             
1 41105U 15074A   25165.14211674 -.00000105  00000+0  00000+0 0  9998
2 41105   5.7641  75.0731 0000795 219.7226   4.5673  1.00272843 34817
INSAT-3DR               
1 41752U 16054A   25165.88008925 -.00000064  00000+0  00000+0 0  9993
2 41752   0.0948  93.1239 0009884 175.6979  25.4217  1.00271228 32113
HIMAWARI-9              
1 41836U 16064A   25165.58165866 -.00000261  00000+0  00000+0 0  9991
2 41836   0.0496 109.4490 0001470   0.7820 143.0597  1.00270737 31616
GOES 16                 
1 41866U 16071A   25165.55656861 -.00000077  00000+0  00000+0 0  9994
2 41866   0.0491 247.7085 0001010 229.0125 242.0080  1.00273812 31416
FENGYUN 4A              
1 41882U 16077A   25165.63766369 -.00000344  00000+0  00000+0 0  9999
2 41882   1.3846  84.3016 0006946 167.5151   4.7005  1.00272888 31242
CYGFM05                 
1 41884U 16078A   25165.31822915  .00013903  00000+0  33021-3 0  9994
2 41884  34.9598 144.8992 0010841 285.0889  74.8631 15.40752074471710
